#dP2022  3 16 12  0  0.00000000      96 __u+U ITR00 EXT  IAC
## 2201 302400.00000000   900.00000000 59654 0.5000000000000
+  117   C06C07C08C09C10C11C12C13C14C16C19C20C21C22C23C24C25
+        C26C27C28C29C30C32C33C34C35C36C37C38C39C40C41C42C43
+        C44C45C46E01E02E03E04E05E07E08E10E11E12E13E14E15E18
+        E19E21E24E25E26E27E30E31E33E34E36G01G02G03G04G05G06
+        G07G08G09G10G11G12G13G14G15G16G17G18G19G20G21G22G23
+        G24G25G26G27G28G29G30G31G32J01J02J03R01R02R03R04R05
+        R07R08R09R11R12R13R14R15R17R18R19R20R21R22R24  0  0
++        12  7 10 12  9 11  9 11  8 10  8  9  9  8  9  8  9
++         8  9  8  9  8  9  7  9  8  8  9  8  8  9  8  9  8
++         8  9 10  9  7  7  9  7  8  6  7  7  7  8  9  8  8
++         8  8  7  8  8  8  7  9  8  8  8  6  7  8  7  7  7
++         8  8  7  9  7  8  8  8  7  8  7  8  8  7  8  8  9
++         7  7  8  7  8  7  7  8  7  9 10 10 10  7  7  7  9
++         7  8  9 11  8  8  9  9  9  9  7 10  8  9  9  0  0
%c M  cc GPS ccc cccc cccc cccc cccc ccccc ccccc ccccc ccccc
%c cc cc ccc ccc cccc cccc cccc cccc ccccc ccccc ccccc ccccc
%f  0.0000000  0.000000000  0.00000000000  0.000000000000000
%f  0.0000000  0.000000000  0.00000000000  0.000000000000000
%i    0    0    0    0      0      0      0      0         0
%i    0    0    0    0      0      0      0      0         0
/* IAC                                ULTRA-RAPID PREDICTION
/* S/V CLOCKS ARE ALIGNED TO GNSS TIME                      
/* G:C1WC2W R:C1PC2P E:C1XC5X C:C2IC6I J:C1CC2S             
/* PCV:IGS14_2196 OL/AL:FES2004  NONE     YN ORB:CoN CLK:CoN
*  2022 03 16 12 30  0.00000000
PC06 -15004.808536  23850.105228 -31425.356794   -380.384270
PC07 -13609.073231  39821.729429    374.872935    128.211770
PC08    504.448238  29724.677355  29974.793016    200.015395
PC09  -2852.953262  24340.287197 -34013.308685   -609.530706
PC10  -7262.707045  40612.292725   7632.038198    138.716126
PC11 -27819.251590   1567.575291  -1225.938468    232.712575
PC12 -19869.934236  -9407.284431 -17148.892417    683.671340
PC13   7725.989937  34231.966062  23697.278790    -88.199154
PC14 -17932.875933   5492.983054  20671.477296    451.816422
PC16 -16677.400540  23121.317681 -30985.222799    103.015409
PC19  17795.701162 -15556.444766 -14818.563515    886.092247
PC20  15696.169581   3237.221808 -22827.539844   -847.833682
PC21  -3966.830364 -21320.000223  17598.433621   -916.298601
PC22   9741.452044 -26084.729964   2079.879588   -961.029218
PC23  -2072.689776  20308.149371 -19031.480241   -943.090376
PC24 -20918.270194 -14237.449525 -11751.657585   -946.840717
PC25 -15819.252998   5653.513114 -22289.546840   -765.075214
PC26 -14442.767294 -23501.668818   4077.220573    765.366481
PC27  11181.005575  13812.885888  21491.504490    692.779473
PC28  -9816.099091  15553.954509  20990.201864     44.114905
PC29  25190.228376  -9027.046733  -7912.856629    528.366817
PC30  25729.124598   3557.730623  10160.689974    495.255469
PC32   4092.140988  21302.130171 -17529.777987   -968.540662
PC33 -17752.265365  15523.205003  14918.385713   -966.660113
PC34 -26163.077784  -2981.148338  -9293.491424   -447.121867
PC35  10130.084875 -15845.937358 -20611.400546    184.628866
PC36  16254.765730  -4754.056822  22197.737072   -944.473233
PC37  13160.544046  24077.321873  -5142.583647   -940.527112
PC38  -6555.392174  26543.280145  32170.235750    218.351260
PC39 -22755.053161  22795.229550 -27279.785282     34.881764
PC40 -19507.470295  37224.216328  -2033.116012    252.745461
PC41  -9977.543801  26011.833013  -1558.079472   -956.991300
PC42 -15356.750192  -4395.544117  22929.746219   -938.624809
PC43 -25561.752628   8575.800609   7246.314213   -935.751909
PC44 -11511.599719 -13616.309515 -21486.953156    596.608843
PC45   1774.097264 -20372.949823  18972.983276    706.165340
PC46  20997.050151  13104.829507  12924.884407   -220.600051
PE01   3394.518687  29409.075452   -351.675905   -597.856785
PE02  -3508.758630 -29379.041220    180.552498    286.606377
PE03   2328.006792 -20556.705695  21175.529900   -537.947997
PE04  16226.430095   8302.288910 -23314.119837   -985.734151
PE05  19863.264645 -20950.469069   6541.729636   -199.864106
PE07 -25602.943702   9140.766865  11708.331763   -648.890942
PE08 -16462.788307  -7832.270817  23321.309413   -496.063931
PE10  27949.035728   9292.696911  -2929.183569   -500.842738
PE11  26650.747294   2021.953976 -12701.816789   4215.854809
PE12  24662.049541  14883.969846   6759.239717   4710.809209
PE13 -26892.969755  -2501.956333  12133.355855    427.320745
PE14 -22115.694987  -5542.797159 -17890.667738  -1780.138629
PE15 -24655.615736 -14862.663074  -6902.938631    757.461807
PE18  27027.337607  -8795.808166   4462.779431  -1677.688249
PE19  -4905.122564  21243.558124 -20014.669845  -1407.794624
PE21  -8598.232691  22844.253801 -16756.773036   -722.855067
PE24  16660.442378  -1221.143272  24418.164545   -508.399700
PE25   8748.988673 -22637.360177  16938.796897   -566.994469
PE26 -12435.059428  11937.164659  24070.733386   -918.754116
PE27 -16424.199355   2800.242012 -24468.171519   -254.402604
PE30 -14110.816851 -19701.766933 -16997.427891   -353.018927
PE31  14525.308589  18746.909264  17719.967220   -493.616076
PE33   7862.889930  18409.717921  21806.145392   -458.520712
PE34  -8133.050294 -18421.306536 -21697.833035   -507.043809
PE36  13308.314809 -11252.022585 -23917.109523   -346.074686
PG01 -22470.513684 -14477.234625  -1409.688093    407.605796
PG02   6766.703218  17870.339759  19049.716651   -652.311939
PG03 -12727.905450 -13826.890768  18710.541927   -166.000115
PG04 -18214.598665  -5099.057664  18686.128338   -183.239210
PG05   5840.745099  24923.350242  -6940.752285    -74.870785
PG06  -9802.551832  11180.969869  22081.524174    233.256546
PG07 -23174.043091  -3126.933136 -12660.208023    316.279566
PG08  -9270.853294 -12069.048413 -21813.241215    -60.067225
PG09 -23626.587548   5127.360630  10964.594102   -349.454252
PG10  11653.831983 -16323.238434 -17115.748547   -348.639466
PG11   5234.230281  18611.278151  18215.936121    -61.000277
PG12  10238.307047  17680.442130  16772.112071   -185.726603
PG13   -258.446261  15947.998804 -21362.752687    277.805506
PG14 -13013.288697  15225.892184 -17411.376512    -94.369303
PG15  11534.735338  11352.696957 -21488.218932    -76.364776
PG16    -95.338117 -26091.574362  -3624.893125   -481.280260
PG17 -22006.828135  14331.677037   4578.838104    587.940145
PG18  22784.284152   3107.690979 -13383.441871    218.552984
PG19 -17983.375615  15918.229183  10870.059889    131.748780
PG20   1654.291569  26435.926137   3313.391086    516.276132
PG21 -18060.528068 -16612.355284 -10279.972573    159.449301
PG22  14688.949170 -17513.861625  13772.757965    228.373713
PG23  14764.064563  -4608.165481 -21591.791969     -7.274168
PG24  21362.133724  15126.555119  -5949.424884    267.504844
PG25  15023.230710   3848.401895  21302.585652    299.066970
PG26   5447.916745 -24146.810528   9111.790353    191.232136
PG27   2982.214168 -17375.745597 -19940.378940    155.755842
PG28  -9380.928618  22406.446608 -10487.792405    379.261133
PG29  23329.461928  -1873.044084  12564.841487   -492.004444
PG30 -18606.698050   4594.365542 -18411.760158   -518.991219
PG31   8075.909221 -12965.616701  21600.763760   -169.170710
PG32  19205.763317 -16882.870995   6938.555466    -85.889119
PJ01 -35019.810115  23193.829449   8757.080261    195.730357
PJ02 -20294.546206  27055.133449 -20644.630149     -2.007917
PJ03 -30182.141901  24251.830325  21740.514259     -1.008849
PR01    628.484905  16379.260908 -19534.075060      7.261381
PR02  13143.147817  -1024.445450 -21777.990253    512.682277
PR03  16796.137828 -16173.145816 -10230.851254     53.193064
PR04  11094.549041 -21932.110474   6839.356801    132.165569
PR05   -704.280076 -15625.685108  20157.282990     89.461384
PR07 -16813.047444  16620.759819   9680.956369     32.704113
PR08 -11013.483405  21979.349486  -6791.019619    -64.049668
PR09 -15268.134409 -11454.487293 -16947.502968     44.634363
PR11   1305.144592  19597.879060 -16262.564010     43.374185
PR12  11734.804227  22639.873398   1027.956010     17.458033
PR13  15112.304373  12591.580408  16221.476901    -19.524350
PR14   9423.458992  -6007.350080  22935.346212     75.447856
PR15  -1489.740770 -20082.511252  15669.267706     97.503903
PR17  22047.630991  -3901.921754 -12240.516255    509.985888
PR18   7598.185296  -9449.950203 -22416.368078    110.462723
PR19  -9371.959204 -10506.474118 -21270.681702   -181.782740
PR20 -24307.497986  -5269.643213  -5766.649530    -66.836350
PR21 -21169.951814   4390.659056  13521.817237   -285.745489
PR22  -6858.565519   9519.656362  22651.407011   -170.928498
PR24  24591.146322   4534.434914   5072.215438     84.632052
EOF
